[{"OBJECT_NAME":"SUPERVIEW NEO-2 OBJECT B","OBJECT_ID":"2026-062B","EPOCH":"2026-03-27T01:10:54.793056","MEAN_MOTION":15.20012563,"ECCENTRICITY":0.00103961,"INCLINATION":97.4356,"RA_OF_ASC_NODE":94.5245,"ARG_OF_PERICENTER":272.384,"MEAN_ANOMALY":87.6205,"EPHEMERIS_TYPE":0,"CLASSIFICATION_TYPE":"U","NORAD_CAT_ID":68378,"ELEMENT_SET_NO":999,"REV_AT_EPOCH":17,"BSTAR":0.00014872926,"MEAN_MOTION_DOT":3.139e-5,"MEAN_MOTION_DDOT":0},{"OBJECT_NAME":"CZ-2D R/B","OBJECT_ID":"2026-062C","EPOCH":"2026-03-30T04:17:25.562976","MEAN_MOTION":15.31055259,"ECCENTRICITY":0.0053545,"INCLINATION":97.4996,"RA_OF_ASC_NODE":97.4994,"ARG_OF_PERICENTER":46.7393,"MEAN_ANOMALY":313.8297,"EPHEMERIS_TYPE":0,"CLASSIFICATION_TYPE":"U","NORAD_CAT_ID":68379,"ELEMENT_SET_NO":999,"REV_AT_EPOCH":65,"BSTAR":0.0002939,"MEAN_MOTION_DOT":9.137e-5,"MEAN_MOTION_DDOT":0},{"OBJECT_NAME":"SHIYAN-33","OBJECT_ID":"2026-064A","EPOCH":"2026-03-28T22:14:04.790976","MEAN_MOTION":15.23577189,"ECCENTRICITY":0.00149095,"INCLINATION":97.4665,"RA_OF_ASC_NODE":163.8675,"ARG_OF_PERICENTER":225.4312,"MEAN_ANOMALY":134.5709,"EPHEMERIS_TYPE":0,"CLASSIFICATION_TYPE":"U","NORAD_CAT_ID":68405,"ELEMENT_SET_NO":999,"REV_AT_EPOCH":27,"BSTAR":0.00027404343,"MEAN_MOTION_DOT":6.503e-5,"MEAN_MOTION_DDOT":0},{"OBJECT_NAME":"2026-065A","OBJECT_ID":"2026-065A","EPOCH":"2026-03-28T22:34:26.975136","MEAN_MOTION":15.18211376,"ECCENTRICITY":0.0015809,"INCLINATION":97.4112,"RA_OF_ASC_NODE":330.1101,"ARG_OF_PERICENTER":287.1112,"MEAN_ANOMALY":72.839,"EPHEMERIS_TYPE":0,"CLASSIFICATION_TYPE":"U","NORAD_CAT_ID":68408,"ELEMENT_SET_NO":999,"REV_AT_EPOCH":8,"BSTAR":7.0532e-5,"MEAN_MOTION_DOT":1.379e-5,"MEAN_MOTION_DDOT":0}]
